NORAD_CAT_ID,OBJECT_NAME,OBJECT_TYPE,EPOCH,MEAN_MOTION,ECCENTRICITY,INCLINATION,RA_OF_ASC_NODE,ARG_OF_PERICENTER,MEAN_ANOMALY,BSTAR,MEAN_MOTION_DOT,MEAN_MOTION_DDOT,TLE_LINE0,TLE_LINE1,TLE_LINE2,SEMIMAJOR_AXIS,PERIOD,APOGEE,PERIGEE,DECAYED
50812.0,STARLINK-3338,PAYLOAD,2023-06-24 00:15:28,15.08841527,6.92e-05,53.2166,282.0697,89.7025,270.4046,2.2837e-05,7.6e-07,0.0,0 STARLINK-3338,1 50812U 22001K   23175.01074603  .00000076  00000-0  22837-4 0  9999,2 50812  53.2166 282.0697 0000692  89.7025 270.4046 15.08841527 82388,6917.876,95.437,540.219,539.262,0.0
50812.0,STARLINK-3338,PAYLOAD,2023-06-24 16:09:17,15.08873369,8.4e-05,53.2156,279.095,110.1924,249.9159,0.00042722,6.524e-05,0.0,0 STARLINK-3338,1 50812U 22001K   23175.67312120  .00006524  00000-0  42722-3 0  9998,2 50812  53.2156 279.0950 0000840 110.1924 249.9159 15.08873369 82483,6917.778,95.435,540.224,539.062,0.0
50812.0,STARLINK-3338,PAYLOAD,2023-06-25 00:06:15,15.08838287,0.0001879,53.2154,277.61,74.1328,285.9871,-9.8798e-05,-1.86e-05,0.0,0 STARLINK-3338,1 50812U 22001K   23176.00434185 -.00001860  00000-0 -98798-4 0  9997,2 50812  53.2154 277.6100 0001879  74.1328 285.9871 15.08838287 82539,6917.886,95.438,541.05,538.451,0.0
50812.0,STARLINK-3338,PAYLOAD,2023-06-26 06:18:35,15.08827703,8.01e-05,53.2154,271.9599,60.4196,299.6876,-1.5645e-05,-5.37e-06,0.0,0 STARLINK-3338,1 50812U 22001K   23177.26291072 -.00000537  00000-0 -15645-4 0  9992,2 50812  53.2154 271.9599 0000801  60.4196 299.6876 15.08827703 82722,6917.918,95.438,540.337,539.229,0.0
50812.0,STARLINK-3338,PAYLOAD,2023-06-27 10:55:32,15.08844512,0.0001144,53.2154,266.6075,53.4074,306.7024,0.00053937,8.308e-05,0.0,0 STARLINK-3338,1 50812U 22001K   23178.45523475  .00008308  00000-0  53937-3 0  9996,2 50812  53.2154 266.6075 0001144  53.4074 306.7024 15.08844512 82902,6917.867,95.437,540.523,538.94,0.0
50812.0,STARLINK-3338,PAYLOAD,2023-06-28 10:46:19,15.08836501,9.26e-05,53.2162,262.1426,64.8973,295.2115,0.00010441,1.374e-05,0.0,0 STARLINK-3338,1 50812U 22001K   23179.44883582  .00001374  00000-0  10441-3 0  9993,2 50812  53.2162 262.1426 0000926  64.8973 295.2115 15.08836501 83052,6917.891,95.438,540.397,539.115,0.0
50812.0,STARLINK-3338,PAYLOAD,2023-06-29 15:23:15,15.08848697,8.77e-05,53.2157,256.793,61.2727,298.8353,0.00018944,2.729e-05,0.0,0 STARLINK-3338,1 50812U 22001K   23180.64114916  .00002729  00000-0  18944-3 0  9996,2 50812  53.2157 256.7930 0000877  61.2727 298.8353 15.08848697 83230,6917.854,95.437,540.326,539.112,0.0
50812.0,STARLINK-3338,PAYLOAD,2023-06-30 21:35:35,15.0883642,9.14e-05,53.2155,251.1433,62.4711,297.6374,5.5787e-06,-1.99e-06,0.0,0 STARLINK-3338,1 50812U 22001K   23181.89971859 -.00000199  00000-0  55787-5 0  9999,2 50812  53.2155 251.1433 0000914  62.4711 297.6374 15.08836420 83425,6917.891,95.438,540.389,539.124,0.0
50812.0,STARLINK-3338,PAYLOAD,2023-07-02 10:09:27,15.08843093,9.73e-05,53.215,244.3043,65.9151,294.1943,0.00015511,2.182e-05,0.0,0 STARLINK-3338,1 50812U 22001K   23183.42323914  .00002182  00000-0  15511-3 0  9995,2 50812  53.2150 244.3043 0000973  65.9151 294.1943 15.08843093 83655,6917.871,95.437,540.409,539.063,0.0
50812.0,STARLINK-3338,PAYLOAD,2023-07-03 10:00:14,15.08842215,9.68e-05,53.2145,239.8445,68.0703,292.0392,9.6169e-05,1.243e-05,0.0,0 STARLINK-3338,1 50812U 22001K   23184.41684006  .00001243  00000-0  96169-4 0  9993,2 50812  53.2145 239.8445 0000968  68.0703 292.0392 15.08842215 83802,6917.874,95.437,540.408,539.069,0.0
50812.0,STARLINK-3338,PAYLOAD,2023-07-04 14:37:10,15.08848316,0.0001009,53.2156,234.4914,70.941,289.1691,0.0001019,1.335e-05,0.0,0 STARLINK-3338,1 50812U 22001K   23185.60915472  .00001335  00000-0  10190-3 0  9990,2 50812  53.2156 234.4914 0001009  70.9410 289.1691 15.08848316 83986,6917.855,95.437,540.418,539.022,0.0
50812.0,STARLINK-3338,PAYLOAD,2023-07-04 20:58:44,15.08836001,9.44e-05,53.2152,233.3018,74.7782,285.3314,0.00020658,3.001e-05,0.0,0 STARLINK-3338,1 50812U 22001K   23185.87412094  .00003001  00000-0  20658-3 0  9993,2 50812  53.2152 233.3018 0000944  74.7782 285.3314 15.08836001 84020,6917.893,95.438,540.411,539.105,0.0
50812.0,STARLINK-3338,PAYLOAD,2023-07-06 03:11:03,15.08839982,9.58e-05,53.2155,227.6506,81.355,278.7551,4.1026e-05,3.65e-06,0.0,0 STARLINK-3338,1 50812U 22001K   23187.13267984  .00000365  00000-0  41026-4 0  9993,2 50812  53.2155 227.6506 0000958  81.3550 278.7551 15.08839982 84214,6917.88,95.438,540.408,539.083,0.0
50812.0,STARLINK-3338,PAYLOAD,2023-07-07 07:47:59,15.08840902,9.73e-05,53.2157,222.2985,80.9614,279.1488,8.1675e-05,1.012e-05,0.0,0 STARLINK-3338,1 50812U 22001K   23188.32499937  .00001012  00000-0  81675-4 0  9994,2 50812  53.2157 222.2985 0000973  80.9614 279.1488 15.08840902 84398,6917.878,95.437,540.416,539.07,0.0
50812.0,STARLINK-3338,PAYLOAD,2023-07-08 09:14:10,15.08839015,9.94e-05,53.2154,217.5411,78.8738,281.2366,5.1946e-05,5.39e-06,0.0,0 STARLINK-3338,1 50812U 22001K   23189.38484310  .00000539  00000-0  51946-4 0  9991,2 50812  53.2154 217.5411 0000994  78.8738 281.2366 15.08839015 84552,6917.883,95.438,540.436,539.061,0.0
50812.0,STARLINK-3338,PAYLOAD,2023-07-09 01:08:02,15.08833656,9.7e-05,53.215,214.5676,78.4239,281.6862,2.7126e-05,1.44e-06,0.0,0 STARLINK-3338,1 50812U 22001K   23190.04724879  .00000144  00000-0  27126-4 0  9998,2 50812  53.2150 214.5676 0000970  78.4239 281.6862 15.08833656 84655,6917.9,95.438,540.436,539.094,0.0
50812.0,STARLINK-3338,PAYLOAD,2023-07-10 10:31:08,15.08837282,9.98e-05,53.2151,208.3227,73.5068,286.6034,5.3798e-05,5.68e-06,0.0,0 STARLINK-3338,1 50812U 22001K   23191.43828987  .00000568  00000-0  53798-4 0  9991,2 50812  53.2151 208.3227 0000998  73.5068 286.6034 15.08837282 84863,6917.889,95.438,540.444,539.063,0.0
50812.0,STARLINK-3338,PAYLOAD,2023-07-11 18:18:50,15.08842206,0.0001025,53.2152,202.375,73.2624,286.848,9.56e-05,1.234e-05,0.0,0 STARLINK-3338,1 50812U 22001K   23192.76308645  .00001234  00000-0  95600-4 0  9991,2 50812  53.2152 202.3750 0001025  73.2624 286.8480 15.08842206 85068,6917.874,95.437,540.448,539.03,0.0
50812.0,STARLINK-3338,PAYLOAD,2023-07-13 10:03:29,15.08840109,0.0001079,53.215,194.9403,75.0112,285.0999,-1.846e-06,-3.17e-06,0.0,0 STARLINK-3338,1 50812U 22001K   23194.41908852 -.00000317  00000-0 -18460-5 0  9994,2 50812  53.2150 194.9403 0001079  75.0112 285.0999 15.08840109 85312,6917.88,95.438,540.491,538.999,0.0
50812.0,STARLINK-3338,PAYLOAD,2023-07-14 16:15:48,15.08838918,0.0001085,53.215,189.2899,74.6183,285.4929,1.4755e-05,-5.3e-07,0.0,0 STARLINK-3338,1 50812U 22001K   23195.67764934 -.00000053  00000-0  14755-4 0  9992,2 50812  53.2150 189.2899 0001085  74.6183 285.4929 15.08838918 85501,6917.884,95.438,540.499,538.998,0.0
50812.0,STARLINK-3338,PAYLOAD,2023-07-16 00:03:32,15.08834276,0.0001107,53.2156,183.3441,82.1305,277.9812,3.249e-05,2.29e-06,0.0,0 STARLINK-3338,1 50812U 22001K   23197.00245473  .00000229  00000-0  32490-4 0  9993,2 50812  53.2156 183.3441 0001107  82.1305 277.9812 15.08834276 85702,6917.898,95.438,540.529,538.997,0.0
50812.0,STARLINK-3338,PAYLOAD,2023-07-17 15:48:10,15.08841926,0.0001139,53.2158,175.91,85.8216,274.2906,7.4063e-05,8.91e-06,0.0,0 STARLINK-3338,1 50812U 22001K   23198.65845073  .00000891  00000-0  74063-4 0  9994,2 50812  53.2158 175.9100 0001139  85.8216 274.2906 15.08841926 85950,6917.875,95.437,540.527,538.952,0.0
50812.0,STARLINK-3338,PAYLOAD,2023-07-19 02:46:39,15.08836937,0.0001316,53.2156,169.3661,86.3224,273.7919,1.0156e-05,-1.26e-06,0.0,0 STARLINK-3338,1 50812U 22001K   23200.11573508 -.00000126  00000-0  10156-4 0  9995,2 50812  53.2156 169.3661 0001316  86.3224 273.7919 15.08836937 86178,6917.89,95.438,540.665,538.844,0.0
50812.0,STARLINK-3338,PAYLOAD,2023-07-20 21:42:04,15.08836475,0.0001255,53.216,161.337,102.0999,258.0134,7.8603e-05,9.63e-06,0.0,0 STARLINK-3338,1 50812U 22001K   23201.90421564  .00000963  00000-0  78603-4 0  9996,2 50812  53.2160 161.3370 0001255 102.0999 258.0134 15.08836475 86441,6917.891,95.438,540.624,538.888,0.0
50812.0,STARLINK-3338,PAYLOAD,2023-07-21 07:14:22,15.08841864,0.0001289,53.216,159.5534,95.3417,264.7723,0.00011695,1.574e-05,0.0,0 STARLINK-3338,1 50812U 22001K   23202.30165201  .00001574  00000-0  11695-3 0  9990,2 50812  53.2160 159.5534 0001289  95.3417 264.7723 15.08841864 86501,6917.875,95.437,540.631,538.848,0.0
50812.0,STARLINK-3338,PAYLOAD,2023-07-24 06:46:45,15.08834656,0.0001179,53.2168,146.172,95.1472,264.9655,-2.7574e-05,-7.27e-06,0.0,0 STARLINK-3338,1 50812U 22001K   23205.28246726 -.00000727  00000-0 -27574-4 0  9997,2 50812  53.2168 146.1720 0001179  95.1472 264.9655 15.08834656 85703,6917.897,95.438,540.577,538.946,0.0
50812.0,STARLINK-3338,PAYLOAD,2023-07-25 05:02:08,15.08842372,0.0001132,53.2172,142.0093,91.7389,268.3733,8.7452e-05,1.104e-05,0.0,0 STARLINK-3338,1 50812U 22001K   23206.20982036  .00001104  00000-0  87452-4 0  9990,2 50812  53.2172 142.0093 0001132  91.7389 268.3733 15.08842372 85848,6917.873,95.437,540.521,538.955,0.0
50812.0,STARLINK-3338,PAYLOAD,2023-07-26 04:52:56,15.08841417,0.0001993,53.2204,137.5493,73.3357,286.7854,1.9256e-05,1.8e-07,0.0,0 STARLINK-3338,1 50812U 22001K   23207.20342934  .00000018  00000-0  19256-4 0  9998,2 50812  53.2204 137.5493 0001993  73.3357 286.7854 15.08841417 85996,6917.876,95.437,541.12,538.362,0.0
50812.0,STARLINK-3338,PAYLOAD,2023-07-27 01:32:55,15.08846971,0.0001204,53.2159,133.6834,88.031,272.082,0.00015386,2.162e-05,0.0,0 STARLINK-3338,1 50812U 22001K   23208.06453382  .00002162  00000-0  15386-3 0  9994,2 50812  53.2159 133.6834 0001204  88.0310 272.0820 15.08846971 87373,6917.859,95.437,540.557,538.891,0.0
50812.0,STARLINK-3338,PAYLOAD,2023-07-27 04:43:41,15.08851426,0.0001299,53.2161,133.0881,83.6313,276.4827,0.00017729,2.536e-05,0.0,0 STARLINK-3338,1 50812U 22001K   23208.19701017  .00002536  00000-0  17729-3 0  9997,2 50812  53.2161 133.0881 0001299  83.6313 276.4827 15.08851426 86140,6917.845,95.437,540.609,538.812,0.0
